STARLINK-31969          
1 59889U 24100E   26068.47012503 -.00001487  00000+0 -44529-4 0  9999
2 59889  43.0022 123.1512 0000846 208.8511 151.2294 15.27573262101163
AL MUNTHER              
1 63240U 25052AG  26068.64540749  .00017933  00000+0  65015-3 0  9992
2 63240  97.4001 323.9152 0008027 130.7043 229.4895 15.28381521 54798
